IRIDIUM 166             
1 43570U 18061B   26005.38553796  .00000071  00000+0  18301-4 0  9998
2 43570  86.3987 124.8288 0002064  92.1954 267.9479 14.34217854390068
IRIDIUM 158             
1 43571U 18061C   26005.42359354  .00000221  00000+0  71829-4 0  9999
2 43571  86.3990 124.8233 0002143 102.7457 257.3978 14.34216284390037
IRIDIUM 165             
1 43572U 18061D   26005.37919190  .00000414  00000+0  14061-3 0  9992
2 43572  86.3992 124.8854 0001842  94.4864 265.6542 14.34216499390052
IRIDIUM 155             
1 43573U 18061E   26005.41090845 -.00000215  00000+0 -83875-4 0  9996
2 43573  86.3992 124.7491 0002127  96.3476 263.7962 14.34217410390022
IRIDIUM 154             
1 43574U 18061F   26005.39187874  .00000388  00000+0  13143-3 0  9992
2 43574  86.3991 124.8822 0002005  93.5214 266.6211 14.34216154390073
IRIDIUM 163             
1 43575U 18061G   26005.37285251  .00000041  00000+0  76201-5 0  9991
2 43575  86.3990 124.8106 0002016 101.2500 258.8923 14.34217745390042
IRIDIUM 156             
1 43576U 18061H   26005.34748337  .00000036  00000+0  56912-5 0  9999
2 43576  86.3988 124.8285 0002297  96.8471 263.2986 14.34217505390037
IRIDIUM 164             
1 43577U 18061J   26005.39822235  .00000383  00000+0  12981-3 0  9996
2 43577  86.3994 124.8448 0001870  90.4421 269.6989 14.34217441390084
